[{"OBJECT_NAME":"STARLINK-30327","OBJECT_ID":"2023-129K","EPOCH":"2026-03-09T12:25:28.993152","MEAN_MOTION":15.26626807,"ECCENTRICITY":0.00230309,"INCLINATION":42.9974,"RA_OF_ASC_NODE":85.9834,"ARG_OF_PERICENTER":70.832,"MEAN_ANOMALY":289.5022,"EPHEMERIS_TYPE":0,"CLASSIFICATION_TYPE":"U","NORAD_CAT_ID":57707,"ELEMENT_SET_NO":999,"REV_AT_EPOCH":14090,"BSTAR":0.00029313824,"MEAN_MOTION_DOT":7.635e-5,"MEAN_MOTION_DDOT":0},{"OBJECT_NAME":"STARLINK-35193","OBJECT_ID":"2025-224H","EPOCH":"2026-03-09T01:21:57.257280","MEAN_MOTION":15.30213872,"ECCENTRICITY":0.00012146,"INCLINATION":53.1611,"RA_OF_ASC_NODE":14.5512,"ARG_OF_PERICENTER":120.2525,"MEAN_ANOMALY":239.8597,"EPHEMERIS_TYPE":0,"CLASSIFICATION_TYPE":"U","NORAD_CAT_ID":65889,"ELEMENT_SET_NO":999,"REV_AT_EPOCH":2475,"BSTAR":0.00084703262,"MEAN_MOTION_DOT":0.00024822,"MEAN_MOTION_DDOT":0}]
